TDRS 3                  
1 19548U 88091B   17204.84007670 -.00000321  00000-0  00000-0 0  9996
2 19548  14.4439   7.5876 0033775 310.4029 223.8420  1.00277894 92810
SKYNET 4C               
1 20776U 90079A   17204.11453046  .00000106  00000-0  00000-0 0  9992
2 20776  13.8425  15.7474 0002387 136.2627 223.7980  1.00277768 98345
TDRS 5                  
1 21639U 91054B   17204.66882817  .00000064  00000-0  00000-0 0  9990
2 21639  14.3978  21.0274 0022963 350.3255   3.3859  1.00276921 95118
TDRS 6                  
1 22314U 93003B   17204.36898097 -.00000314  00000-0  00000-0 0  9990
2 22314  13.9297  23.9724 0001938 294.9235  69.3814  1.00276149 89780
ASTRA 1D                
1 23331U 94070A   17204.49878325 -.00000290  00000-0  00000-0 0  9994
2 23331   7.6152  49.0218 0003588  68.4378 291.0195  1.00272350 83568
BRASILSAT B2            
1 23536U 95016A   17204.46924310 -.00000302  00000-0  00000-0 0  9999
2 23536   7.2378  50.9061 0001586  75.0698 276.3240  1.00270352 81715
AMSC 1                  
1 23553U 95019A   17204.55968361 -.00000138  00000-0  00000-0 0  9992
2 23553  10.1265  39.5568 0002883  83.3762 276.7201  1.00272223 81587
TDRS 7                  
1 23613U 95035B   17204.81473032 -.00000221  00000-0  00000-0 0  9995
2 23613  14.9868  14.7249 0028435   5.3845 299.6923  1.00270777 80657
ECHOSTAR 1              
1 23754U 95073A   17204.94781372 -.00000265  00000-0  00000-0 0  9994
2 23754   0.8895  90.0874 0003001  61.1382  54.5623  1.00269462 19821
INMARSAT 3-F1           
1 23839U 96020A   17204.71181410 -.00000018  00000-0  00000-0 0  9999
2 23839   4.0514  67.3510 0005820  51.4165 143.6028  1.00273404 77728
ASTRA 1F                
1 23842U 96021A   17204.92900253  .00000115  00000-0  00000-0 0  9998
2 23842   0.0547 314.7309 0003478 180.1315 185.7083  1.00273247 19755
MSAT M1                 
1 23846U 96022A   17203.59896160 -.00000106  00000-0  00000-0 0  9997
2 23846   7.8030  48.5438 0004828  74.2250 285.8806  1.00272487 77830
INMARSAT 3-F2           
1 24307U 96053A   17204.23166243 -.00000148  00000-0  00000-0 0  9994
2 24307   2.6982  77.5702 0004494  27.0789 264.4082  1.00271858 76424
AMC-1 (GE-1)            
1 24315U 96054A   17203.75843348  .00000037  00000-0  00000-0 0  9994
2 24315   1.6414  84.9566 0002696  53.6704 305.9400  1.00272981 13723
AFRICASAT-2 (MEASAT-2)  
1 24653U 96063B   17204.48938233 -.00000251  00000-0  00000-0 0  9997
2 24653   7.5379  49.4402 0007948 169.7875  46.3667  1.00271770 75860
INMARSAT 3-F3           
1 24674U 96070A   17204.71387524  .00000012  00000-0  00000-0 0  9999
2 24674   3.5014  71.6119 0005129  53.4950 251.6091  1.00270288 75370
AMC-2 (GE-2)            
1 24713U 97002A   17204.55115455 -.00000235  00000-0  00000-0 0  9991
2 24713   4.4018  65.7644 0004768  51.6052 297.6565  1.00272039 25733
INTELSAT 26 (IS-26)     
1 24732U 97007A   17204.82574410 -.00000035  00000-0  00000-0 0  9995
2 24732   7.5152  49.7698 0002712  50.6185 204.3991  1.00272860 74689
GALAXY 25 (G-25)        
1 24812U 97026A   17204.42158246 -.00000185  00000-0  00000-0 0  9992
2 24812   0.0160  54.0010 0003592  66.1051 239.9116  1.00272454 73763
ABS-3                   
1 24901U 97042A   17204.83035473 -.00000216  00000-0  00000-0 0  9995
2 24901   4.9531  63.0690 0005202  42.4064 220.4876  1.00269123 72959
INTELSAT 5 (IS-5)       
1 24916U 97046A   17203.92547952 -.00000166  00000-0  00000-0 0  9998
2 24916   3.6143  70.9427 0002775  47.9217 312.0379  1.00272131 73014
AMC-3 (GE-3)            
1 24936U 97050A   17204.59077087 -.00000282  00000-0  00000-0 0  9995
2 24936   0.4558  92.3084 0002364  21.8190 328.0432  1.00271971 19831
NSS-5                   
1 24957U 97053A   17204.92575973  .00000083  00000-0  00000-0 0  9993
2 24957   3.9081  69.1370 0003033  42.2699 214.1726  1.00271779 72586
ECHOSTAR 3              
1 25004U 97059A   17203.61337984 -.00000188  00000-0  00000-0 0  9993
2 25004   2.2274  80.1566 0003022  26.9230 332.8408  0.99813570 72453
JCSAT-1B                
1 25067U 97075A   17204.78310056  .00000019  00000-0  00000-0 0  9992
2 25067   5.6227  58.5478 0020366 104.9988 126.1311  0.98651327 74767
ASTRA 1G                
1 25071U 97076A   17204.92359495  .00000082  00000-0  00000-0 0  9994
2 25071   2.3964  78.3110 0002867  44.0136 203.1125  1.00274478 71962
BRASILSAT B3            
1 25152U 98006A   17204.52762624 -.00000307  00000-0  00000-0 0  9997
2 25152   4.0927  68.1606 0003023  49.3003 310.7089  1.00270426 71337
INMARSAT 3-F5           
1 25153U 98006B   17204.45948847 -.00000311  00000-0  00000-0 0  9998
2 25153   2.6465  74.1606 0004717  50.5118 288.1028  1.00274312 71292
NSS-806                 
1 25239U 98014A   17204.71087625 -.00000302  00000-0  00000-0 0  9999
2 25239   0.0755 320.7656 0004060 156.1324  33.1350  1.00273396 14710
CHINASAT 5A (ZX 5A)     
1 25354U 98033A   17204.46542519 -.00000377  00000-0  00000-0 0  9990
2 25354   1.3184  87.1417 0001171  98.7596  48.5410  1.00269743 74645
THOR III                
1 25358U 98035A   17203.34158903 -.00000065  00000-0  00000-0 0  9996
2 25358   5.4827  58.9004 0001831  61.9695 298.0641  1.00272136 70241
INTELSAT 805 (IS-805)   
1 25371U 98037A   17204.71365417 -.00000055  00000-0  00000-0 0  9994
2 25371   0.0884  93.6379 0002664  34.8795 239.0085  1.00270657 69955
ASTRA 2A                
1 25462U 98050A   17204.94438793 -.00000383  00000-0  00000-0 0  9997
2 25462   0.0584 242.7056 0002454 230.1867 282.4204  1.00273357 13752
AFRISTAR                
1 25515U 98063A   17204.89143174  .00000099  00000-0  00000-0 0  9993
2 25515   3.3691  69.6285 0003829  58.2892 155.7909  1.00273907 68351
JCSAT-4A                
1 25630U 99006A   17204.54007640 -.00000227  00000-0  00000-0 0  9992
2 25630   2.3674  79.8914 0004339  49.4163 156.5456  1.00270115 67400
SKYNET 4E               
1 25639U 99009B   17204.74587192 -.00000000  00000-0  00000-0 0  9990
2 25639  10.1640  28.3170 0002762 103.7779  84.0137  1.00273648 18802
ASIASAT 3S              
1 25657U 99013A   17204.90492017 -.00000261  00000-0  00000-0 0  9993
2 25657   2.5809  78.1079 0002512  31.5934 303.9274  1.00270461 67224
NIMIQ 1                 
1 25740U 99027A   17204.61295990 -.00000221  00000-0  00000-0 0  9996
2 25740   0.0472 266.4804 0004060 189.7919 339.3999  1.00272336 66514
ASTRA 1H                
1 25785U 99033A   17204.92991810  .00000113  00000-0  00000-0 0  9999
2 25785   3.8927  69.2911 0002426  50.2767 200.5163  1.00272807 18820
TELKOM 1                
1 25880U 99042A   17204.78412542 -.00000368  00000-0  00000-0 0  9992
2 25880   0.0634 107.0877 0001687  23.7895 201.1229  1.00270893 65765
ABS-7                   
1 25894U 99046A   17204.76091003 -.00000386  00000-0  00000-0 0  9994
2 25894   0.0150  84.6220 0002277  45.0540 202.0546  1.00269177 64534
ABS-6                   
1 25924U 99053A   17204.72052140 -.00000144  00000-0  00000-0 0  9993
2 25924   0.0446 290.0455 0002816 174.2153 255.7519  1.00270884 65288
TELSTAR 12 (ORION 2)    
1 25949U 99059A   17204.74979903 -.00000086  00000-0  00000-0 0  9998
2 25949   1.0108  88.7374 0002706  43.2196 330.4333  1.00272038 64932
AMC-4 (GE-4)            
1 25954U 99060A   17204.49134811  .00000040  00000-0  00000-0 0  9998
2 25954   0.0326  91.5692 0000243 182.0858  86.3238  0.99687503 64895
GALAXY 11 (G-11)        
1 26038U 99071A   17204.92900253  .00000113  00000-0  00000-0 0  9994
2 26038   0.0387 104.6955 0000237 329.3378 247.1352  1.00269945 64512
HISPASAT 1C             
1 26071U 00007A   17204.86314215  .00000061  00000-0  00000-0 0  9994
2 26071   0.6404  89.7441 0004772  92.6273 137.8160  0.99199412 15044
SUPERBIRD-B2            
1 26095U 00012A   17204.71347885 -.00000117  00000-0  00000-0 0  9992
2 26095   0.4762  94.1595 0003063  32.0035 234.2583  1.00271728 12593
ASIASTAR                
1 26107U 00016A   17204.90885927 -.00000358  00000-0  00000-0 0  9992
2 26107   1.7470  81.8846 0003451  40.1010 252.0735  1.00271638 63338
EUTELSAT 16C            
1 26243U 00019A   17204.89143174  .00000065  00000-0  00000-0 0  9999
2 26243   4.3325  66.1292 0002823  59.8353 151.2163  1.00270638 63151
EUTELSAT 80A            
1 26369U 00028A   17204.80446098  .00000107  00000-0  00000-0 0  9997
2 26369   1.0895  85.3877 0003188  27.8525 146.3679  1.00050401 62845
TDRS 8                  
1 26388U 00034A   17204.07004881 -.00000255  00000-0  00000-0 0  9999
2 26388   7.5508  55.5299 0002560 209.5322 150.4978  1.00273947 62583
ECHOSTAR 6              
1 26402U 00038A   17204.61295990 -.00000172  00000-0  00000-0 0  9991
2 26402   4.2520  66.9319 0003133  44.0299 315.0197  1.00271948 62344
INTELSAT 9 (IS-9)       
1 26451U 00043A   17204.44354810 -.00000241  00000-0  00000-0 0  9996
2 26451   3.6019  71.1641 0002497  51.5204 308.8401  1.00271788 11547
BRASILSAT B4            
1 26469U 00046A   17203.65575591 -.00000191  00000-0  00000-0 0  9995
2 26469   1.7258  84.9919 0002418  37.2850 322.3336  1.00269403 62366
NILESAT 102             
1 26470U 00046B   17204.22520703 -.00000082  00000-0  00000-0 0  9995
2 26470   1.7537  83.5650 0003717  58.6306 233.0412  1.00270742 12592
ASTRA 2B                
1 26494U 00054A   17204.35953395 -.00000164  00000-0  00000-0 0  9992
2 26494   2.2831  78.9636 0002077 131.8410 206.0833  1.00100679 14287
AMC-7 (GE-7)            
1 26495U 00054B   17204.53768291  .00000065  00000-0  00000-0 0  9991
2 26495   0.0304  73.6874 0000510 100.1591 186.1357  1.00269894 61662
NSS-11 (AAP-1)          
1 26554U 00059A   17204.81018319 -.00000368  00000-0  00000-0 0  9999
2 26554   0.0594 274.4130 0002153 207.3354 219.8257  1.00267361  8714
N-SAT-110 (JCSAT-110)   
1 26559U 00060A   17204.97377962 -.00000375  00000-0  00000-0 0  9993
2 26559   0.0204  83.7171 0001012 349.0366 329.7456  1.00271672  8681
